start=new Date('2023-03-14T00:00:00.000Z').valueOf();
sats=[{"CENTER_NAME":"EARTH","MEAN_ELEMENT_THEORY":"SGP4","ARG_OF_PERICENTER":"116.7591","RA_OF_ASC_NODE":"320.3564","SITE":"AFETR","SEMIMAJOR_AXIS":"6917.920","MEAN_ANOMALY":"243.3558","REF_FRAME":"TEME","INCLINATION":"53.2158","FILE":"3859631","TIME_SYSTEM":"UTC","OBJECT_ID":"2022-041AM","DECAY_DATE":null,"APOAPSIS":"540.843","REV_AT_EPOCH":"4968","ECCENTRICITY":"0.00015290","PERIOD":"95.438","RCS_SIZE":"LARGE","COUNTRY_CODE":"US","OBJECT_NAME":"STARLINK-3766","OBJECT_TYPE":"PAYLOAD","LAUNCH_DATE":"2022-04-21","NORAD_CAT_ID":"52296","GP_ID":"228034575","BSTAR":"-0.00030458000000","PERIAPSIS":"538.727","TLE_LINE1":"1 52296U 22041AM  23072.89983296 -.00005130  00000-0 -30458-3 0  9995","MEAN_MOTION":"15.08826965","TLE_LINE2":"2 52296  53.2158 320.3564 0001529 116.7591 243.3558 15.08826965 49687","CLASSIFICATION_TYPE":"U","EPOCH":"2023-03-13T21:35:45.567744","MEAN_MOTION_DDOT":"0.0000000000000","MEAN_MOTION_DOT":"-0.00005130","ELEMENT_SET_NO":"999","EPHEMERIS_TYPE":"0"},{"LAUNCH_DATE":"2022-04-21","OBJECT_TYPE":"PAYLOAD","PERIOD":"95.438","COUNTRY_CODE":"US","RCS_SIZE":"LARGE","OBJECT_NAME":"STARLINK-3758","APOAPSIS":"540.310","REV_AT_EPOCH":"4968","ECCENTRICITY":"0.00007630","TIME_SYSTEM":"UTC","DECAY_DATE":null,"OBJECT_ID":"2022-041AN","INCLINATION":"53.2161","FILE":"3859631","CENTER_NAME":"EARTH","MEAN_ELEMENT_THEORY":"SGP4","ARG_OF_PERICENTER":"74.7082","RA_OF_ASC_NODE":"320.2748","SITE":"AFETR","SEMIMAJOR_AXIS":"6917.917","REF_FRAME":"TEME","MEAN_ANOMALY":"285.3995","EPHEMERIS_TYPE":"0","MEAN_MOTION_DOT":"0.00016321","ELEMENT_SET_NO":"999","EPOCH":"2023-03-13T22:02:15.672480","CLASSIFICATION_TYPE":"U","MEAN_MOTION_DDOT":"0.0000000000000","TLE_LINE2":"2 52297  53.2161 320.2748 0000763  74.7082 285.3995 15.08827867 49685","TLE_LINE1":"1 52297U 22041AN  23072.91823695  .00016321  00000-0  10415-2 0  9997","MEAN_MOTION":"15.08827867","PERIAPSIS":"539.255","NORAD_CAT_ID":"52297","GP_ID":"228033324","BSTAR":"0.00104150000000"},{"PERIAPSIS":"538.780","MEAN_MOTION":"15.08834340","TLE_LINE1":"1 52298U 22041AP  23072.89711280  .00001325  00000-0  10135-3 0  9999","BSTAR":"0.00010135000000","GP_ID":"228033574","NORAD_CAT_ID":"52298","ELEMENT_SET_NO":"999","MEAN_MOTION_DOT":"0.00001325","EPHEMERIS_TYPE":"0","TLE_LINE2":"2 52298  53.2162 320.3728 0001420  90.6568 269.4587 15.08834340 49687","MEAN_MOTION_DDOT":"0.0000000000000","EPOCH":"2023-03-13T21:31:50.545920","CLASSIFICATION_TYPE":"U","OBJECT_ID":"2022-041AP","DECAY_DATE":null,"TIME_SYSTEM":"UTC","ECCENTRICITY":"0.00014200","REV_AT_EPOCH":"4968","APOAPSIS":"540.745","SEMIMAJOR_AXIS":"6917.898","MEAN_ANOMALY":"269.4587","REF_FRAME":"TEME","SITE":"AFETR","ARG_OF_PERICENTER":"90.6568","MEAN_ELEMENT_THEORY":"SGP4","RA_OF_ASC_NODE":"320.3728","CENTER_NAME":"EARTH","FILE":"3859631","INCLINATION":"53.2162","LAUNCH_DATE":"2022-04-21","OBJECT_NAME":"STARLINK-3760","RCS_SIZE":"LARGE","COUNTRY_CODE":"US","PERIOD":"95.438","OBJECT_TYPE":"PAYLOAD"},{"OBJECT_ID":"2022-041AQ","DECAY_DATE":null,"TIME_SYSTEM":"UTC","REV_AT_EPOCH":"4968","ECCENTRICITY":"0.00009450","APOAPSIS":"540.447","SITE":"AFETR","SEMIMAJOR_AXIS":"6917.929","REF_FRAME":"TEME","MEAN_ANOMALY":"267.5724","CENTER_NAME":"EARTH","ARG_OF_PERICENTER":"92.5376","RA_OF_ASC_NODE":"320.3432","MEAN_ELEMENT_THEORY":"SGP4","INCLINATION":"53.2152","FILE":"3859631","LAUNCH_DATE":"2022-04-21","COUNTRY_CODE":"US","RCS_SIZE":"LARGE","OBJECT_NAME":"STARLINK-3759","PERIOD":"95.439","OBJECT_TYPE":"PAYLOAD","PERIAPSIS":"539.140","TLE_LINE1":"1 52299U 22041AQ  23072.90351502  .00011179  00000-0  71966-3 0  9996","MEAN_MOTION":"15.08824245","BSTAR":"0.00071966000000","GP_ID":"228034325","NORAD_CAT_ID":"52299","MEAN_MOTION_DOT":"0.00011179","ELEMENT_SET_NO":"999","EPHEMERIS_TYPE":"0","TLE_LINE2":"2 52299  53.2152 320.3432 0000945  92.5376 267.5724 15.08824245 49683","MEAN_MOTION_DDOT":"0.0000000000000","EPOCH":"2023-03-13T21:41:03.697728","CLASSIFICATION_TYPE":"U"},{"EPHEMERIS_TYPE":"0","MEAN_MOTION_DOT":"0.00018895","ELEMENT_SET_NO":"999","EPOCH":"2023-03-13T02:15:13.645152","CLASSIFICATION_TYPE":"U","MEAN_MOTION_DDOT":"0.0000000000000","TLE_LINE2":"2 52300  53.2162 323.9754 0001701 102.0950 258.0233 15.08857213 50783","TLE_LINE1":"1 52300U 22041AR  23072.09390793  .00018895  00000-0  12015-2 0  9995","MEAN_MOTION":"15.08857213","PERIAPSIS":"538.516","NORAD_CAT_ID":"52300","GP_ID":"228003696","BSTAR":"0.00120150000000","LAUNCH_DATE":"2022-04-21","OBJECT_TYPE":"PAYLOAD","PERIOD":"95.436","RCS_SIZE":"LARGE","COUNTRY_CODE":"US","OBJECT_NAME":"STARLINK-3769","APOAPSIS":"540.869","REV_AT_EPOCH":"5078","ECCENTRICITY":"0.00017010","TIME_SYSTEM":"UTC","DECAY_DATE":null,"OBJECT_ID":"2022-041AR","FILE":"3859425","INCLINATION":"53.2162","CENTER_NAME":"EARTH","ARG_OF_PERICENTER":"102.0950","RA_OF_ASC_NODE":"323.9754","MEAN_ELEMENT_THEORY":"SGP4","SITE":"AFETR","SEMIMAJOR_AXIS":"6917.828","REF_FRAME":"TEME","MEAN_ANOMALY":"258.0233"},{"PERIAPSIS":"538.865","MEAN_MOTION":"15.08834664","TLE_LINE1":"1 52301U 22041AS  23072.90719067  .00013742  00000-0  87996-3 0  9992","NORAD_CAT_ID":"52301","BSTAR":"0.00087996000000","GP_ID":"228033824","ELEMENT_SET_NO":"999","MEAN_MOTION_DOT":"0.00013742","EPHEMERIS_TYPE":"0","TLE_LINE2":"2 52301  53.2154 320.3295 0001296  53.9442 306.1670 15.08834664 49687","EPOCH":"2023-03-13T21:46:21.273888","CLASSIFICATION_TYPE":"U","MEAN_MOTION_DDOT":"0.0000000000000","TIME_SYSTEM":"UTC","DECAY_DATE":null,"OBJECT_ID":"2022-041AS","APOAPSIS":"540.658","ECCENTRICITY":"0.00012960","REV_AT_EPOCH":"4968","MEAN_ELEMENT_THEORY":"SGP4","ARG_OF_PERICENTER":"53.9442","RA_OF_ASC_NODE":"320.3295","CENTER_NAME":"EARTH","MEAN_ANOMALY":"306.1670","SEMIMAJOR_AXIS":"6917.897","REF_FRAME":"TEME","SITE":"AFETR","INCLINATION":"53.2154","FILE":"3859631","LAUNCH_DATE":"2022-04-21","PERIOD":"95.438","OBJECT_NAME":"STARLINK-3768","COUNTRY_CODE":"US","RCS_SIZE":"LARGE","OBJECT_TYPE":"PAYLOAD"},{"INCLINATION":"53.2168","FILE":"3859425","SEMIMAJOR_AXIS":"6917.816","REF_FRAME":"TEME","MEAN_ANOMALY":"285.9467","SITE":"AFETR","ARG_OF_PERICENTER":"74.1629","MEAN_ELEMENT_THEORY":"SGP4","RA_OF_ASC_NODE":"314.0166","CENTER_NAME":"EARTH","ECCENTRICITY":"0.00009350","REV_AT_EPOCH":"4969","APOAPSIS":"540.327","OBJECT_ID":"2022-041AT","DECAY_DATE":null,"TIME_SYSTEM":"UTC","OBJECT_TYPE":"PAYLOAD","OBJECT_NAME":"STARLINK-3564","RCS_SIZE":"LARGE","COUNTRY_CODE":"US","PERIOD":"95.436","LAUNCH_DATE":"2022-04-21","GP_ID":"228004688","BSTAR":"0.00131910000000","NORAD_CAT_ID":"52302","MEAN_MOTION":"15.08861175","TLE_LINE1":"1 52302U 22041AT  23072.08377989  .00020780  00000-0  13191-2 0  9990","PERIAPSIS":"539.034","MEAN_MOTION_DDOT":"0.0000000000000","CLASSIFICATION_TYPE":"U","EPOCH":"2023-03-13T02:00:38.582496","TLE_LINE2":"2 52302  53.2168 314.0166 0000935  74.1629 285.9467 15.08861175 49697","EPHEMERIS_TYPE":"0","ELEMENT_SET_NO":"999","MEAN_MOTION_DOT":"0.00020780"},{"EPHEMERIS_TYPE":"0","MEAN_MOTION_DOT":"0.00017791","ELEMENT_SET_NO":"999","EPOCH":"2023-03-13T21:25:10.083648","CLASSIFICATION_TYPE":"U","MEAN_MOTION_DDOT":"0.0000000000000","TLE_LINE2":"2 52303  53.2163 320.3928 0001258  99.2329 260.8806 15.08817534 50908","TLE_LINE1":"1 52303U 22041AU  23072.89247782  .00017791  00000-0  11338-2 0  9996","MEAN_MOTION":"15.08817534","PERIAPSIS":"538.944","NORAD_CAT_ID":"52303","BSTAR":"0.00113380000000","GP_ID":"228034825","LAUNCH_DATE":"2022-04-21","OBJECT_TYPE":"PAYLOAD","PERIOD":"95.439","COUNTRY_CODE":"US","RCS_SIZE":"LARGE","OBJECT_NAME":"STARLINK-3742","APOAPSIS":"540.684","REV_AT_EPOCH":"5090","ECCENTRICITY":"0.00012580","TIME_SYSTEM":"UTC","OBJECT_ID":"2022-041AU","DECAY_DATE":null,"FILE":"3859631","INCLINATION":"53.2163","CENTER_NAME":"EARTH","ARG_OF_PERICENTER":"99.2329","RA_OF_ASC_NODE":"320.3928","MEAN_ELEMENT_THEORY":"SGP4","SITE":"AFETR","MEAN_ANOMALY":"260.8806","SEMIMAJOR_AXIS":"6917.949","REF_FRAME":"TEME"},{"MEAN_MOTION_DDOT":"0.0000000000000","CLASSIFICATION_TYPE":"U","EPOCH":"2023-03-13T05:06:06.636384","TLE_LINE2":"2 52304  53.2155 313.4435 0001142  88.5237 271.5886 15.08878432 49715","EPHEMERIS_TYPE":"0","ELEMENT_SET_NO":"999","MEAN_MOTION_DOT":"0.00020727","GP_ID":"228003197","BSTAR":"0.00131520000000","NORAD_CAT_ID":"52304","MEAN_MOTION":"15.08878432","TLE_LINE1":"1 52304U 22041AV  23072.21257681  .00020727  00000-0  13152-2 0  9991","PERIAPSIS":"538.838","OBJECT_TYPE":"PAYLOAD","OBJECT_NAME":"STARLINK-3744","RCS_SIZE":"LARGE","COUNTRY_CODE":"US","PERIOD":"95.435","LAUNCH_DATE":"2022-04-21","INCLINATION":"53.2155","FILE":"3859425","REF_FRAME":"TEME","SEMIMAJOR_AXIS":"6917.763","MEAN_ANOMALY":"271.5886","SITE":"AFETR","ARG_OF_PERICENTER":"88.5237","RA_OF_ASC_NODE":"313.4435","MEAN_ELEMENT_THEORY":"SGP4","CENTER_NAME":"EARTH","ECCENTRICITY":"0.00011420","REV_AT_EPOCH":"4971","APOAPSIS":"540.418","OBJECT_ID":"2022-041AV","DECAY_DATE":null,"TIME_SYSTEM":"UTC"},{"PERIAPSIS":"539.175","MEAN_MOTION":"15.08837022","TLE_LINE1":"1 52305U 22041AW  23072.89617041 -.00001803  00000-0 -95261-4 0  9995","BSTAR":"-0.00009526100000","GP_ID":"228033325","NORAD_CAT_ID":"52305","ELEMENT_SET_NO":"999","MEAN_MOTION_DOT":"-0.00001803","EPHEMERIS_TYPE":"0","TLE_LINE2":"2 52305  53.2152 320.4750 0000838  94.3640 265.7447 15.08837022 49689","MEAN_MOTION_DDOT":"0.0000000000000","CLASSIFICATION_TYPE":"U","EPOCH":"2023-03-13T21:30:29.123424","OBJECT_ID":"2022-041AW","DECAY_DATE":null,"TIME_SYSTEM":"UTC","ECCENTRICITY":"0.00008380","REV_AT_EPOCH":"4968","APOAPSIS":"540.334","REF_FRAME":"TEME","SEMIMAJOR_AXIS":"6917.889","MEAN_ANOMALY":"265.7447","SITE":"AFETR","RA_OF_ASC_NODE":"320.4750","ARG_OF_PERICENTER":"94.3640","MEAN_ELEMENT_THEORY":"SGP4","CENTER_NAME":"EARTH","INCLINATION":"53.2152","FILE":"3859631","LAUNCH_DATE":"2022-04-21","OBJECT_NAME":"STARLINK-3724","RCS_SIZE":"MEDIUM","COUNTRY_CODE":"US","PERIOD":"95.438","OBJECT_TYPE":"PAYLOAD"}];
